CCSDS_OMM_VERS = 2.0
CREATION_DATE  = 
ORIGINATOR     = 

OBJECT_NAME    = SL-16 R/B
OBJECT_ID      = 1998-043G
CENTER_NAME    = EARTH
REF_FRAME      = TEME
TIME_SYSTEM    = UTC
MEAN_ELEMENT_THEORY = SGP/SGP4

EPOCH          = 2026-02-07T20:12:22.446144
MEAN_MOTION    = 14.26042565
ECCENTRICITY   = .00108928
INCLINATION    = 98.8206
RA_OF_ASC_NODE = 352.0035
ARG_OF_PERICENTER = 99.9713
MEAN_ANOMALY   = 260.2697

EPHEMERIS_TYPE = 0
CLASSIFICATION_TYPE = U
NORAD_CAT_ID   = 25400
ELEMENT_SET_NO = 999
REV_AT_EPOCH   = 43473
BSTAR          = .65473262E-4
MEAN_MOTION_DOT = .111E-5
MEAN_MOTION_DDOT = 0

CCSDS_OMM_VERS = 2.0
CREATION_DATE  = 
ORIGINATOR     = 

OBJECT_NAME    = SL-16 R/B
OBJECT_ID      = 1998-045B
CENTER_NAME    = EARTH
REF_FRAME      = TEME
TIME_SYSTEM    = UTC
MEAN_ELEMENT_THEORY = SGP/SGP4

EPOCH          = 2026-02-07T21:46:27.353856
MEAN_MOTION    = 14.16185153
ECCENTRICITY   = .00053384
INCLINATION    = 71.0083
RA_OF_ASC_NODE = 244.2056
ARG_OF_PERICENTER = 63.7093
MEAN_ANOMALY   = 296.4578

EPHEMERIS_TYPE = 0
CLASSIFICATION_TYPE = U
NORAD_CAT_ID   = 25407
ELEMENT_SET_NO = 999
REV_AT_EPOCH   = 42288
BSTAR          = -.7057972E-5
MEAN_MOTION_DOT = -.62E-6
MEAN_MOTION_DDOT = 0

CCSDS_OMM_VERS = 2.0
CREATION_DATE  = 
ORIGINATOR     = 

OBJECT_NAME    = ISS (ZARYA)
OBJECT_ID      = 1998-067A
CENTER_NAME    = EARTH
REF_FRAME      = TEME
TIME_SYSTEM    = UTC
MEAN_ELEMENT_THEORY = SGP/SGP4

EPOCH          = 2026-02-07T21:21:41.492448
MEAN_MOTION    = 15.48470326
ECCENTRICITY   = .00110233
INCLINATION    = 51.6314
RA_OF_ASC_NODE = 219.6672
ARG_OF_PERICENTER = 75.1924
MEAN_ANOMALY   = 285.0284

EPHEMERIS_TYPE = 0
CLASSIFICATION_TYPE = U
NORAD_CAT_ID   = 25544
ELEMENT_SET_NO = 999
REV_AT_EPOCH   = 55171
BSTAR          = .21099807E-3
MEAN_MOTION_DOT = .10998E-3
MEAN_MOTION_DDOT = 0

CCSDS_OMM_VERS = 2.0
CREATION_DATE  = 
ORIGINATOR     = 

OBJECT_NAME    = CZ-4B R/B
OBJECT_ID      = 1999-025C
CENTER_NAME    = EARTH
REF_FRAME      = TEME
TIME_SYSTEM    = UTC
MEAN_ELEMENT_THEORY = SGP/SGP4

EPOCH          = 2026-02-07T18:18:44.889120
MEAN_MOTION    = 14.18259310
ECCENTRICITY   = .00381274
INCLINATION    = 98.6686
RA_OF_ASC_NODE = 83.7453
ARG_OF_PERICENTER = 71.6891
MEAN_ANOMALY   = 41.3148

EPHEMERIS_TYPE = 0
CLASSIFICATION_TYPE = U
NORAD_CAT_ID   = 25732
ELEMENT_SET_NO = 999
REV_AT_EPOCH   = 38392
BSTAR          = .53450214E-4
MEAN_MOTION_DOT = .68E-6
MEAN_MOTION_DDOT = 0

CCSDS_OMM_VERS = 2.0
CREATION_DATE  = 
ORIGINATOR     = 

OBJECT_NAME    = OKEAN-O
OBJECT_ID      = 1999-039A
CENTER_NAME    = EARTH
REF_FRAME      = TEME
TIME_SYSTEM    = UTC
MEAN_ELEMENT_THEORY = SGP/SGP4

EPOCH          = 2026-02-07T16:58:55.737984
MEAN_MOTION    = 14.80286171
ECCENTRICITY   = .00018814
INCLINATION    = 97.9509
RA_OF_ASC_NODE = 98.8939
ARG_OF_PERICENTER = 87.6176
MEAN_ANOMALY   = 272.5252

EPHEMERIS_TYPE = 0
CLASSIFICATION_TYPE = U
NORAD_CAT_ID   = 25860
ELEMENT_SET_NO = 999
REV_AT_EPOCH   = 42995
BSTAR          = .13432094E-3
MEAN_MOTION_DOT = .971E-5
MEAN_MOTION_DDOT = 0

CCSDS_OMM_VERS = 2.0
CREATION_DATE  = 
ORIGINATOR     = 

OBJECT_NAME    = SL-16 R/B
OBJECT_ID      = 1999-039B
CENTER_NAME    = EARTH
REF_FRAME      = TEME
TIME_SYSTEM    = UTC
MEAN_ELEMENT_THEORY = SGP/SGP4

EPOCH          = 2026-02-07T17:10:45.161472
MEAN_MOTION    = 14.81688893
ECCENTRICITY   = .00147178
INCLINATION    = 98.0031
RA_OF_ASC_NODE = 97.8469
ARG_OF_PERICENTER = 0.2659
MEAN_ANOMALY   = 359.8559

EPHEMERIS_TYPE = 0
CLASSIFICATION_TYPE = U
NORAD_CAT_ID   = 25861
ELEMENT_SET_NO = 999
REV_AT_EPOCH   = 43242
BSTAR          = .10488344E-3
MEAN_MOTION_DOT = .773E-5
MEAN_MOTION_DDOT = 0

CCSDS_OMM_VERS = 2.0
CREATION_DATE  = 
ORIGINATOR     = 

OBJECT_NAME    = DELTA 2 R/B
OBJECT_ID      = 1999-041E
CENTER_NAME    = EARTH
REF_FRAME      = TEME
TIME_SYSTEM    = UTC
MEAN_ELEMENT_THEORY = SGP/SGP4

EPOCH          = 2026-02-07T10:12:21.596544
MEAN_MOTION    = 14.11715206
ECCENTRICITY   = .05023244
INCLINATION    = 51.7648
RA_OF_ASC_NODE = 62.1362
ARG_OF_PERICENTER = 259.0175
MEAN_ANOMALY   = 95.3879

EPHEMERIS_TYPE = 0
CLASSIFICATION_TYPE = U
NORAD_CAT_ID   = 25876
ELEMENT_SET_NO = 999
REV_AT_EPOCH   = 35875
BSTAR          = .45604637E-3
MEAN_MOTION_DOT = .2603E-4
MEAN_MOTION_DDOT = 0

CCSDS_OMM_VERS = 2.0
CREATION_DATE  = 
ORIGINATOR     = 

OBJECT_NAME    = HELIOS 1B
OBJECT_ID      = 1999-064A
CENTER_NAME    = EARTH
REF_FRAME      = TEME
TIME_SYSTEM    = UTC
MEAN_ELEMENT_THEORY = SGP/SGP4

EPOCH          = 2026-02-07T17:09:41.929632
MEAN_MOTION    = 14.87573395
ECCENTRICITY   = .00020221
INCLINATION    = 98.1723
RA_OF_ASC_NODE = 300.0738
ARG_OF_PERICENTER = 117.3768
MEAN_ANOMALY   = 242.7653

EPHEMERIS_TYPE = 0
CLASSIFICATION_TYPE = U
NORAD_CAT_ID   = 25977
ELEMENT_SET_NO = 999
REV_AT_EPOCH   = 68080
BSTAR          = .27371647E-3
MEAN_MOTION_DOT = .2428E-4
MEAN_MOTION_DDOT = 0

CCSDS_OMM_VERS = 2.0
CREATION_DATE  = 
ORIGINATOR     = 

OBJECT_NAME    = TERRA
OBJECT_ID      = 1999-068A
CENTER_NAME    = EARTH
REF_FRAME      = TEME
TIME_SYSTEM    = UTC
MEAN_ELEMENT_THEORY = SGP/SGP4

EPOCH          = 2026-02-07T22:20:56.651136
MEAN_MOTION    = 14.60981846
ECCENTRICITY   = .00009338
INCLINATION    = 97.9657
RA_OF_ASC_NODE = 93.4931
ARG_OF_PERICENTER = 278.4236
MEAN_ANOMALY   = 184.4737

EPHEMERIS_TYPE = 0
CLASSIFICATION_TYPE = U
NORAD_CAT_ID   = 25994
ELEMENT_SET_NO = 999
REV_AT_EPOCH   = 39073
BSTAR          = .12121423E-3
MEAN_MOTION_DOT = .55E-5
MEAN_MOTION_DDOT = 0

CCSDS_OMM_VERS = 2.0
CREATION_DATE  = 
ORIGINATOR     = 

OBJECT_NAME    = SL-16 R/B
OBJECT_ID      = 2000-006B
CENTER_NAME    = EARTH
REF_FRAME      = TEME
TIME_SYSTEM    = UTC
MEAN_ELEMENT_THEORY = SGP/SGP4

EPOCH          = 2026-02-07T21:57:28.532448
MEAN_MOTION    = 14.15820740
ECCENTRICITY   = .00184142
INCLINATION    = 71.0030
RA_OF_ASC_NODE = 160.4415
ARG_OF_PERICENTER = 232.1420
MEAN_ANOMALY   = 127.8038

EPHEMERIS_TYPE = 0
CLASSIFICATION_TYPE = U
NORAD_CAT_ID   = 26070
ELEMENT_SET_NO = 999
REV_AT_EPOCH   = 34434
BSTAR          = -.6243181E-5
MEAN_MOTION_DOT = -.6E-6
MEAN_MOTION_DDOT = 0

CCSDS_OMM_VERS = 2.0
CREATION_DATE  = 
ORIGINATOR     = 

OBJECT_NAME    = TITAN 4B R/B
OBJECT_ID      = 2000-047B
CENTER_NAME    = EARTH
REF_FRAME      = TEME
TIME_SYSTEM    = UTC
MEAN_ELEMENT_THEORY = SGP/SGP4

EPOCH          = 2026-02-07T19:28:28.166304
MEAN_MOTION    = 15.09314574
ECCENTRICITY   = .00370417
INCLINATION    = 67.9891
RA_OF_ASC_NODE = 124.5112
ARG_OF_PERICENTER = 72.1065
MEAN_ANOMALY   = 288.4118

EPHEMERIS_TYPE = 0
CLASSIFICATION_TYPE = U
NORAD_CAT_ID   = 26474
ELEMENT_SET_NO = 999
REV_AT_EPOCH   = 38840
BSTAR          = .28809108E-3
MEAN_MOTION_DOT = .4545E-4
MEAN_MOTION_DDOT = 0

CCSDS_OMM_VERS = 2.0
CREATION_DATE  = 
ORIGINATOR     = 

OBJECT_NAME    = ENVISAT
OBJECT_ID      = 2002-009A
CENTER_NAME    = EARTH
REF_FRAME      = TEME
TIME_SYSTEM    = UTC
MEAN_ELEMENT_THEORY = SGP/SGP4

EPOCH          = 2026-02-07T20:25:23.923776
MEAN_MOTION    = 14.39025666
ECCENTRICITY   = .00012897
INCLINATION    = 98.3679
RA_OF_ASC_NODE = 353.1686
ARG_OF_PERICENTER = 90.9560
MEAN_ANOMALY   = 322.0276

EPHEMERIS_TYPE = 0
CLASSIFICATION_TYPE = U
NORAD_CAT_ID   = 27386
ELEMENT_SET_NO = 999
REV_AT_EPOCH   = 25488
BSTAR          = .77048039E-4
MEAN_MOTION_DOT = .195E-5
MEAN_MOTION_DDOT = 0

