SL-16 R/B               
1 25400U 98043G   26038.84192646  .00000111  00000+0  65473-4 0  9995
2 25400  98.8206 352.0035 0010892  99.9713 260.2697 14.26042565434730
SL-16 R/B               
1 25407U 98045B   26038.90726104 -.00000062  00000+0 -70580-5 0  9996
2 25407  71.0083 244.2056 0005338  63.7093 296.4578 14.16185153422889
ISS (ZARYA)             
1 25544U 98067A   26038.89006357  .00010998  00000+0  21100-3 0  9990
2 25544  51.6314 219.6672 0011023  75.1924 285.0284 15.48470326551718
CZ-4B R/B               
1 25732U 99025C   26038.76301955  .00000068  00000+0  53450-4 0  9993
2 25732  98.6686  83.7453 0038127  71.6891  41.3148 14.18259310383927
OKEAN-O                 
1 25860U 99039A   26038.70758956  .00000971  00000+0  13432-3 0  9999
2 25860  97.9509  98.8939 0001881  87.6176 272.5252 14.80286171429953
SL-16 R/B               
1 25861U 99039B   26038.71580048  .00000773  00000+0  10488-3 0  9994
2 25861  98.0031  97.8469 0014717   0.2659 359.8559 14.81688893432425
DELTA 2 R/B             
1 25876U 99041E   26038.42524996  .00002603  00000+0  45605-3 0  9994
2 25876  51.7648  62.1362 0502324 259.0175  95.3879 14.11715206358753
HELIOS 1B               
1 25977U 99064A   26038.71506863  .00002428  00000+0  27372-3 0  9992
2 25977  98.1723 300.0738 0002022 117.3768 242.7653 14.87573395680805
TERRA                   
1 25994U 99068A   26038.93121124  .00000550  00000+0  12121-3 0  9992
2 25994  97.9657  93.4931 0000933 278.4236 184.4737 14.60981846390733
SL-16 R/B               
1 26070U 00006B   26038.91491357 -.00000060  00000+0 -62432-5 0  9998
2 26070  71.0030 160.4415 0018414 232.1420 127.8038 14.15820740344340
TITAN 4B R/B            
1 26474U 00047B   26038.81143711  .00004545  00000+0  28809-3 0  9996
2 26474  67.9891 124.5112 0037041  72.1065 288.4118 15.09314574388401
ENVISAT                 
1 27386U 02009A   26038.85097134  .00000195  00000+0  77048-4 0  9997
2 27386  98.3679 353.1686 0001289  90.9560 322.0276 14.39025666254882
